[{"OBJECT_NAME":"SHIJIAN-6 04A (SJ-6 04A)","OBJECT_ID":"2010-051A","EPOCH":"2026-03-09T23:23:42.914400","MEAN_MOTION":15.16645177,"ECCENTRICITY":0.00182577,"INCLINATION":97.8386,"RA_OF_ASC_NODE":88.8025,"ARG_OF_PERICENTER":202.8454,"MEAN_ANOMALY":157.1968,"EPHEMERIS_TYPE":0,"CLASSIFICATION_TYPE":"U","NORAD_CAT_ID":37179,"ELEMENT_SET_NO":999,"REV_AT_EPOCH":84190,"BSTAR":0.00032742446,"MEAN_MOTION_DOT":6.359e-5,"MEAN_MOTION_DDOT":0},{"OBJECT_NAME":"STARLINK-6160","OBJECT_ID":"2023-061J","EPOCH":"2026-03-09T22:00:01.999584","MEAN_MOTION":15.11953448,"ECCENTRICITY":0.00020226,"INCLINATION":43.0008,"RA_OF_ASC_NODE":195.7704,"ARG_OF_PERICENTER":260.2984,"MEAN_ANOMALY":117.8045,"EPHEMERIS_TYPE":0,"CLASSIFICATION_TYPE":"U","NORAD_CAT_ID":56382,"ELEMENT_SET_NO":999,"REV_AT_EPOCH":572,"BSTAR":0.0025993432,"MEAN_MOTION_DOT":0.00045426,"MEAN_MOTION_DDOT":0}]
